{
  "type": "FeatureCollection",
  "features": [
    {
      "type": "Feature",
      "properties": {
        "norad_id": 41330,
        "name": "COSMOS 2514 (751)",
        "group": "glo-ops",
        "lat": 55.9278487531364,
        "lon": 96.20393578524622,
        "alt_km": 19132.18348156463,
        "timestamp": "2025-12-10T07:43:55.040616+00:00",
        "meta_object_name": "COSMOS 2514 (751)",
        "meta_object_id": "2016-008A",
        "meta_epoch": "2025-12-09T05:37:58.803168",
        "meta_mean_motion": 2.13102552,
        "meta_eccentricity": 0.0012231,
        "meta_inclination": 65.1358,
        "meta_ra_of_asc_node": 319.5239,
        "meta_arg_of_pericenter": 220.0476,
        "meta_mean_anomaly": 139.8584,
        "meta_ephemeris_type": 0,
        "meta_classification_type": "U",
        "meta_norad_cat_id": 41330,
        "meta_element_set_no": 999,
        "meta_rev_at_epoch": 7657,
        "meta_bstar": 0,
        "meta_mean_motion_dot": -4.9e-07,
        "meta_mean_motion_ddot": 0,
        "tle_line1": "1 41330U 16008A   25343.23470837 -.00000049  00000+0  00000+0 0  9999",
        "tle_line2": "2 41330  65.1358 319.5239 0012231 220.0476 139.8584  2.13102552 76577"
      },
      "geometry": {
        "type": "Point",
        "coordinates": [
          96.20393578524622,
          55.9278487531364
        ]
      }
    },
    {
      "type": "Feature",
      "properties": {
        "norad_id": 42939,
        "name": "COSMOS 2522 (752)",
        "group": "glo-ops",
        "lat": -49.878930850539376,
        "lon": 53.569705413122996,
        "alt_km": 19119.609521454888,
        "timestamp": "2025-12-10T07:43:55.040627+00:00",
        "meta_object_name": "COSMOS 2522 (752)",
        "meta_object_id": "2017-055A",
        "meta_epoch": "2025-12-08T03:13:49.063296",
        "meta_mean_motion": 2.13101881,
        "meta_eccentricity": 0.00064484,
        "meta_inclination": 64.0758,
        "meta_ra_of_asc_node": 198.386,
        "meta_arg_of_pericenter": 225.1717,
        "meta_mean_anomaly": 134.8539,
        "meta_ephemeris_type": 0,
        "meta_classification_type": "U",
        "meta_norad_cat_id": 42939,
        "meta_element_set_no": 999,
        "meta_rev_at_epoch": 6390,
        "meta_bstar": 0,
        "meta_mean_motion_dot": 5.1e-07,
        "meta_mean_motion_ddot": 0,
        "tle_line1": "1 42939U 17055A   25342.13459564  .00000051  00000+0  00000+0 0  9992",
        "tle_line2": "2 42939  64.0758 198.3860 0006448 225.1717 134.8539  2.13101881 63907"
      },
      "geometry": {
        "type": "Point",
        "coordinates": [
          53.569705413122996,
          -49.878930850539376
        ]
      }
    },
    {
      "type": "Feature",
      "properties": {
        "norad_id": 43508,
        "name": "COSMOS 2527 (756)",
        "group": "glo-ops",
        "lat": -65.43828328992083,
        "lon": -13.738903376197696,
        "alt_km": 19120.824335193727,
        "timestamp": "2025-12-10T07:43:55.040638+00:00",
        "meta_object_name": "COSMOS 2527 (756)",
        "meta_object_id": "2018-053A",
        "meta_epoch": "2025-12-09T12:04:31.346976",
        "meta_mean_motion": 2.13102032,
        "meta_eccentricity": 0.00085763,
        "meta_inclination": 65.4709,
        "meta_ra_of_asc_node": 80.2399,
        "meta_arg_of_pericenter": 224.3157,
        "meta_mean_anomaly": 135.632,
        "meta_ephemeris_type": 0,
        "meta_classification_type": "U",
        "meta_norad_cat_id": 43508,
        "meta_element_set_no": 999,
        "meta_rev_at_epoch": 5823,
        "meta_bstar": 0,
        "meta_mean_motion_dot": -1.3e-07,
        "meta_mean_motion_ddot": 0,
        "tle_line1": "1 43508U 18053A   25343.50314059 -.00000013  00000+0  00000+0 0  9994",
        "tle_line2": "2 43508  65.4709  80.2399 0008576 224.3157 135.6320  2.13102032 58236"
      },
      "geometry": {
        "type": "Point",
        "coordinates": [
          -13.738903376197696,
          -65.43828328992083
        ]
      }
    },
    {
      "type": "Feature",
      "properties": {
        "norad_id": 43687,
        "name": "COSMOS 2529 (757)",
        "group": "glo-ops",
        "lat": -12.129068137818916,
        "lon": 24.91657533700003,
        "alt_km": 19122.857605151898,
        "timestamp": "2025-12-10T07:43:55.040649+00:00",
        "meta_object_name": "COSMOS 2529 (757)",
        "meta_object_id": "2018-086A",
        "meta_epoch": "2025-12-09T03:09:05.938272",
        "meta_mean_motion": 2.13101866,
        "meta_eccentricity": 0.00072944,
        "meta_inclination": 64.2918,
        "meta_ra_of_asc_node": 199.0104,
        "meta_arg_of_pericenter": 254.1951,
        "meta_mean_anomaly": 105.7985,
        "meta_ephemeris_type": 0,
        "meta_classification_type": "U",
        "meta_norad_cat_id": 43687,
        "meta_element_set_no": 999,
        "meta_rev_at_epoch": 5523,
        "meta_bstar": 0,
        "meta_mean_motion_dot": 4.4e-07,
        "meta_mean_motion_ddot": 0,
        "tle_line1": "1 43687U 18086A   25343.13131873  .00000044  00000+0  00000+0 0  9991",
        "tle_line2": "2 43687  64.2918 199.0104 0007294 254.1951 105.7985  2.13101866 55231"
      },
      "geometry": {
        "type": "Point",
        "coordinates": [
          24.91657533700003,
          -12.129068137818916
        ]
      }
    },
    {
      "type": "Feature",
      "properties": {
        "norad_id": 44299,
        "name": "COSMOS 2534 (758)",
        "group": "glo-ops",
        "lat": -28.53932380171858,
        "lon": -176.15964063088026,
        "alt_km": 19117.46099302729,
        "timestamp": "2025-12-10T07:43:55.040660+00:00",
        "meta_object_name": "COSMOS 2534 (758)",
        "meta_object_id": "2019-030A",
        "meta_epoch": "2025-12-09T05:29:56.087232",
        "meta_mean_motion": 2.13102103,
        "meta_eccentricity": 0.00090056,
        "meta_inclination": 64.3653,
        "meta_ra_of_asc_node": 199.0114,
        "meta_arg_of_pericenter": 283.3894,
        "meta_mean_anomaly": 286.0531,
        "meta_ephemeris_type": 0,
        "meta_classification_type": "U",
        "meta_norad_cat_id": 44299,
        "meta_element_set_no": 999,
        "meta_rev_at_epoch": 5087,
        "meta_bstar": 0,
        "meta_mean_motion_dot": 4.4e-07,
        "meta_mean_motion_ddot": 0,
        "tle_line1": "1 44299U 19030A   25343.22912138  .00000044  00000+0  00000+0 0  9992",
        "tle_line2": "2 44299  64.3653 199.0114 0009005 283.3894 286.0531  2.13102103 50871"
      },
      "geometry": {
        "type": "Point",
        "coordinates": [
          -176.15964063088026,
          -28.53932380171858
        ]
      }
    },
    {
      "type": "Feature",
      "properties": {
        "norad_id": 44850,
        "name": "COSMOS 2544 (759)",
        "group": "glo-ops",
        "lat": -43.477562027974834,
        "lon": 54.41347511913694,
        "alt_km": 19118.748208133773,
        "timestamp": "2025-12-10T07:43:55.040670+00:00",
        "meta_object_name": "COSMOS 2544 (759)",
        "meta_object_id": "2019-088A",
        "meta_epoch": "2025-12-09T10:44:40.843680",
        "meta_mean_motion": 2.13101756,
        "meta_eccentricity": 0.0013649,
        "meta_inclination": 65.4583,
        "meta_ra_of_asc_node": 80.0686,
        "meta_arg_of_pericenter": 249.1242,
        "meta_mean_anomaly": 110.7462,
        "meta_ephemeris_type": 0,
        "meta_classification_type": "U",
        "meta_norad_cat_id": 44850,
        "meta_element_set_no": 999,
        "meta_rev_at_epoch": 4667,
        "meta_bstar": 0,
        "meta_mean_motion_dot": -1.3e-07,
        "meta_mean_motion_ddot": 0,
        "tle_line1": "1 44850U 19088A   25343.44769495 -.00000013  00000+0  00000+0 0  9995",
        "tle_line2": "2 44850  65.4583  80.0686 0013649 249.1242 110.7462  2.13101756 46679"
      },
      "geometry": {
        "type": "Point",
        "coordinates": [
          54.41347511913694,
          -43.477562027974834
        ]
      }
    },
    {
      "type": "Feature",
      "properties": {
        "norad_id": 45358,
        "name": "COSMOS 2545 (760)",
        "group": "glo-ops",
        "lat": 17.566910838716122,
        "lon": 130.34394387695343,
        "alt_km": 19127.197925404897,
        "timestamp": "2025-12-10T07:43:55.040681+00:00",
        "meta_object_name": "COSMOS 2545 (760)",
        "meta_object_id": "2020-018A",
        "meta_epoch": "2025-12-09T04:10:52.430880",
        "meta_mean_motion": 2.13102242,
        "meta_eccentricity": 0.00118935,
        "meta_inclination": 64.4718,
        "meta_ra_of_asc_node": 319.095,
        "meta_arg_of_pericenter": 248.7657,
        "meta_mean_anomaly": 111.1032,
        "meta_ephemeris_type": 0,
        "meta_classification_type": "U",
        "meta_norad_cat_id": 45358,
        "meta_element_set_no": 999,
        "meta_rev_at_epoch": 4461,
        "meta_bstar": 0,
        "meta_mean_motion_dot": -5e-07,
        "meta_mean_motion_ddot": 0,
        "tle_line1": "1 45358U 20018A   25343.17421795 -.00000050  00000+0  00000+0 0  9993",
        "tle_line2": "2 45358  64.4718 319.0950 0011893 248.7657 111.1032  2.13102242 44616"
      },
      "geometry": {
        "type": "Point",
        "coordinates": [
          130.34394387695343,
          17.566910838716122
        ]
      }
    }
  ]
}